CUPID                   
1 49264U 21088E   26068.66993977  .00009454  00000+0  38662-3 0  9991
2 49264  97.3985 131.0756 0013746  59.9938 300.2662 15.24473777245013
STARLINK-32941          
1 63119U 25039R   26068.13754202  .00032157  00000+0  11736-2 0  9992
2 63119  43.0034   4.5285 0001905 261.3183  98.7453 15.27563076 58112
